[{"OBJECT_NAME":"STARLINK-31224","OBJECT_ID":"2024-038G","EPOCH":"2026-01-05T08:24:49.191840","MEAN_MOTION":15.27578112,"ECCENTRICITY":9.734e-5,"INCLINATION":43.003,"RA_OF_ASC_NODE":24.5186,"ARG_OF_PERICENTER":278.522,"MEAN_ANOMALY":81.5522,"EPHEMERIS_TYPE":0,"CLASSIFICATION_TYPE":"U","NORAD_CAT_ID":59029,"ELEMENT_SET_NO":999,"REV_AT_EPOCH":10507,"BSTAR":-5.3754005e-5,"MEAN_MOTION_DOT":-1.741e-5,"MEAN_MOTION_DDOT":0},{"OBJECT_NAME":"STARLINK-31186","OBJECT_ID":"2024-038H","EPOCH":"2026-01-05T07:36:55.641024","MEAN_MOTION":15.27571077,"ECCENTRICITY":7.11e-5,"INCLINATION":43.0023,"RA_OF_ASC_NODE":25.1277,"ARG_OF_PERICENTER":233.7526,"MEAN_ANOMALY":126.326,"EPHEMERIS_TYPE":0,"CLASSIFICATION_TYPE":"U","NORAD_CAT_ID":59030,"ELEMENT_SET_NO":999,"REV_AT_EPOCH":10506,"BSTAR":-3.6999e-5,"MEAN_MOTION_DOT":-1.279e-5,"MEAN_MOTION_DDOT":0},{"OBJECT_NAME":"STARLINK-31211","OBJECT_ID":"2024-038J","EPOCH":"2026-01-05T09:51:34.231104","MEAN_MOTION":15.27580358,"ECCENTRICITY":0.00011757,"INCLINATION":43.0021,"RA_OF_ASC_NODE":24.1106,"ARG_OF_PERICENTER":286.7403,"MEAN_ANOMALY":73.3319,"EPHEMERIS_TYPE":0,"CLASSIFICATION_TYPE":"U","NORAD_CAT_ID":59031,"ELEMENT_SET_NO":999,"REV_AT_EPOCH":10497,"BSTAR":8.500737e-5,"MEAN_MOTION_DOT":2.078e-5,"MEAN_MOTION_DDOT":0},{"OBJECT_NAME":"STARLINK-30862","OBJECT_ID":"2024-038K","EPOCH":"2026-01-05T09:25:53.983488","MEAN_MOTION":15.27569749,"ECCENTRICITY":9.67e-5,"INCLINATION":43.0005,"RA_OF_ASC_NODE":13.642,"ARG_OF_PERICENTER":317.5477,"MEAN_ANOMALY":42.53,"EPHEMERIS_TYPE":0,"CLASSIFICATION_TYPE":"U","NORAD_CAT_ID":59032,"ELEMENT_SET_NO":999,"REV_AT_EPOCH":10509,"BSTAR":0.00027039799,"MEAN_MOTION_DOT":7.184e-5,"MEAN_MOTION_DDOT":0},{"OBJECT_NAME":"STARLINK-31210","OBJECT_ID":"2024-038L","EPOCH":"2026-01-05T08:55:07.784832","MEAN_MOTION":15.27573684,"ECCENTRICITY":7.524e-5,"INCLINATION":43.0033,"RA_OF_ASC_NODE":21.2335,"ARG_OF_PERICENTER":286.551,"MEAN_ANOMALY":73.5259,"EPHEMERIS_TYPE":0,"CLASSIFICATION_TYPE":"U","NORAD_CAT_ID":59033,"ELEMENT_SET_NO":999,"REV_AT_EPOCH":10517,"BSTAR":8.6131803e-5,"MEAN_MOTION_DOT":2.108e-5,"MEAN_MOTION_DDOT":0},{"OBJECT_NAME":"STARLINK-31231","OBJECT_ID":"2024-038M","EPOCH":"2026-01-05T10:23:44.219616","MEAN_MOTION":15.27570079,"ECCENTRICITY":7.364e-5,"INCLINATION":43.0046,"RA_OF_ASC_NODE":20.8341,"ARG_OF_PERICENTER":271.9446,"MEAN_ANOMALY":88.1321,"EPHEMERIS_TYPE":0,"CLASSIFICATION_TYPE":"U","NORAD_CAT_ID":59034,"ELEMENT_SET_NO":999,"REV_AT_EPOCH":10501,"BSTAR":7.595536e-6,"MEAN_MOTION_DOT":-5.3e-7,"MEAN_MOTION_DDOT":0},{"OBJECT_NAME":"STARLINK-31207","OBJECT_ID":"2024-038N","EPOCH":"2026-01-05T08:44:01.453344","MEAN_MOTION":15.27566404,"ECCENTRICITY":0.00026155,"INCLINATION":43.01,"RA_OF_ASC_NODE":21.1749,"ARG_OF_PERICENTER":278.5581,"MEAN_ANOMALY":81.4974,"EPHEMERIS_TYPE":0,"CLASSIFICATION_TYPE":"U","NORAD_CAT_ID":59035,"ELEMENT_SET_NO":999,"REV_AT_EPOCH":10517,"BSTAR":-1.1238903e-5,"MEAN_MOTION_DOT":-5.72e-6,"MEAN_MOTION_DDOT":0},{"OBJECT_NAME":"STARLINK-31217","OBJECT_ID":"2024-038P","EPOCH":"2026-01-05T03:43:30.673632","MEAN_MOTION":15.27558997,"ECCENTRICITY":0.00012795,"INCLINATION":43.0044,"RA_OF_ASC_NODE":288.0318,"ARG_OF_PERICENTER":0.8798,"MEAN_ANOMALY":359.2056,"EPHEMERIS_TYPE":0,"CLASSIFICATION_TYPE":"U","NORAD_CAT_ID":59036,"ELEMENT_SET_NO":999,"REV_AT_EPOCH":10622,"BSTAR":-3.3409674e-5,"MEAN_MOTION_DOT":-1.181e-5,"MEAN_MOTION_DDOT":0},{"OBJECT_NAME":"STARLINK-31208","OBJECT_ID":"2024-038Q","EPOCH":"2026-01-05T09:42:30.820032","MEAN_MOTION":15.27585617,"ECCENTRICITY":0.0002192,"INCLINATION":43.0014,"RA_OF_ASC_NODE":24.8896,"ARG_OF_PERICENTER":257.8924,"MEAN_ANOMALY":102.1682,"EPHEMERIS_TYPE":0,"CLASSIFICATION_TYPE":"U","NORAD_CAT_ID":59037,"ELEMENT_SET_NO":999,"REV_AT_EPOCH":10513,"BSTAR":-1.9002304e-5,"MEAN_MOTION_DOT":-7.85e-6,"MEAN_MOTION_DDOT":0},{"OBJECT_NAME":"STARLINK-31235","OBJECT_ID":"2024-038R","EPOCH":"2026-01-04T18:32:54.754944","MEAN_MOTION":15.27572773,"ECCENTRICITY":0.00013143,"INCLINATION":43.0029,"RA_OF_ASC_NODE":24.4757,"ARG_OF_PERICENTER":268.4534,"MEAN_ANOMALY":91.6167,"EPHEMERIS_TYPE":0,"CLASSIFICATION_TYPE":"U","NORAD_CAT_ID":59038,"ELEMENT_SET_NO":999,"REV_AT_EPOCH":10502,"BSTAR":9.7079685e-5,"MEAN_MOTION_DOT":2.41e-5,"MEAN_MOTION_DDOT":0},{"OBJECT_NAME":"STARLINK-31220","OBJECT_ID":"2024-038S","EPOCH":"2026-01-05T00:52:33.002976","MEAN_MOTION":15.27566321,"ECCENTRICITY":5.882e-5,"INCLINATION":43.004,"RA_OF_ASC_NODE":26.4598,"ARG_OF_PERICENTER":268.4148,"MEAN_ANOMALY":91.6636,"EPHEMERIS_TYPE":0,"CLASSIFICATION_TYPE":"U","NORAD_CAT_ID":59039,"ELEMENT_SET_NO":999,"REV_AT_EPOCH":10502,"BSTAR":-3.188019e-5,"MEAN_MOTION_DOT":-1.139e-5,"MEAN_MOTION_DDOT":0},{"OBJECT_NAME":"STARLINK-31225","OBJECT_ID":"2024-038T","EPOCH":"2026-01-05T08:19:57.483840","MEAN_MOTION":15.27574417,"ECCENTRICITY":5.775e-5,"INCLINATION":43.0024,"RA_OF_ASC_NODE":21.0067,"ARG_OF_PERICENTER":296.4604,"MEAN_ANOMALY":63.6188,"EPHEMERIS_TYPE":0,"CLASSIFICATION_TYPE":"U","NORAD_CAT_ID":59040,"ELEMENT_SET_NO":999,"REV_AT_EPOCH":10500,"BSTAR":5.9637168e-5,"MEAN_MOTION_DOT":1.379e-5,"MEAN_MOTION_DDOT":0},{"OBJECT_NAME":"STARLINK-31240","OBJECT_ID":"2024-038U","EPOCH":"2026-01-05T07:41:18.781728","MEAN_MOTION":15.27582605,"ECCENTRICITY":0.0001641,"INCLINATION":43.0031,"RA_OF_ASC_NODE":21.7082,"ARG_OF_PERICENTER":277.1867,"MEAN_ANOMALY":82.8799,"EPHEMERIS_TYPE":0,"CLASSIFICATION_TYPE":"U","NORAD_CAT_ID":59041,"ELEMENT_SET_NO":999,"REV_AT_EPOCH":10510,"BSTAR":2.3653e-5,"MEAN_MOTION_DOT":3.89e-6,"MEAN_MOTION_DDOT":0},{"OBJECT_NAME":"STARLINK-31202","OBJECT_ID":"2024-038V","EPOCH":"2026-01-05T09:20:48.960384","MEAN_MOTION":15.27577619,"ECCENTRICITY":5.903e-5,"INCLINATION":42.9986,"RA_OF_ASC_NODE":20.5136,"ARG_OF_PERICENTER":270.1218,"MEAN_ANOMALY":89.9566,"EPHEMERIS_TYPE":0,"CLASSIFICATION_TYPE":"U","NORAD_CAT_ID":59042,"ELEMENT_SET_NO":999,"REV_AT_EPOCH":10518,"BSTAR":3.8837751e-5,"MEAN_MOTION_DOT":8.07e-6,"MEAN_MOTION_DDOT":0},{"OBJECT_NAME":"STARLINK-31234","OBJECT_ID":"2024-038W","EPOCH":"2026-01-05T09:06:13.614336","MEAN_MOTION":15.27574541,"ECCENTRICITY":9.53e-5,"INCLINATION":43.0003,"RA_OF_ASC_NODE":21.2868,"ARG_OF_PERICENTER":261.6481,"MEAN_ANOMALY":98.4263,"EPHEMERIS_TYPE":0,"CLASSIFICATION_TYPE":"U","NORAD_CAT_ID":59043,"ELEMENT_SET_NO":999,"REV_AT_EPOCH":10500,"BSTAR":6.0931242e-5,"MEAN_MOTION_DOT":1.415e-5,"MEAN_MOTION_DDOT":0},{"OBJECT_NAME":"STARLINK-31153","OBJECT_ID":"2024-038X","EPOCH":"2026-01-05T00:43:57.950112","MEAN_MOTION":15.27582869,"ECCENTRICITY":0.00011316,"INCLINATION":43.0052,"RA_OF_ASC_NODE":22.9691,"ARG_OF_PERICENTER":268.3472,"MEAN_ANOMALY":91.725,"EPHEMERIS_TYPE":0,"CLASSIFICATION_TYPE":"U","NORAD_CAT_ID":59044,"ELEMENT_SET_NO":999,"REV_AT_EPOCH":10495,"BSTAR":0.00011931435,"MEAN_MOTION_DOT":3.023e-5,"MEAN_MOTION_DDOT":0}]
