STARLINK-31224          
1 59029U 24038G   26005.35056935 -.00001741  00000+0 -53754-4 0  9993
2 59029  43.0030  24.5186 0000973 278.5220  81.5522 15.27578112105073
STARLINK-31186          
1 59030U 24038H   26005.31731066 -.00001279  00000+0 -36999-4 0  9994
2 59030  43.0023  25.1277 0000711 233.7526 126.3260 15.27571077105066
STARLINK-31211          
1 59031U 24038J   26005.41081286  .00002078  00000+0  85007-4 0  9998
2 59031  43.0021  24.1106 0001175 286.7403  73.3319 15.27580358104979
STARLINK-30862          
1 59032U 24038K   26005.39298592  .00007184  00000+0  27040-3 0  9991
2 59032  43.0005  13.6420 0000967 317.5477  42.5300 15.27569749105099
STARLINK-31210          
1 59033U 24038L   26005.37161788  .00002108  00000+0  86132-4 0  9995
2 59033  43.0033  21.2335 0000752 286.5510  73.5259 15.27573684105175
STARLINK-31231          
1 59034U 24038M   26005.43315069 -.00000053  00000+0  75955-5 0  9996
2 59034  43.0046  20.8341 0000736 271.9446  88.1321 15.27570079105010
STARLINK-31207          
1 59035U 24038N   26005.36390571 -.00000572  00000+0 -11239-4 0  9991
2 59035  43.0100  21.1749 0002615 278.5581  81.4974 15.27566404105173
STARLINK-31217          
1 59036U 24038P   26005.15521613 -.00001181  00000+0 -33410-4 0  9994
2 59036  43.0044 288.0318 0001279   0.8798 359.2056 15.27558997106220
STARLINK-31208          
1 59037U 24038Q   26005.40452338 -.00000785  00000+0 -19002-4 0  9990
2 59037  43.0014  24.8896 0002192 257.8924 102.1682 15.27585617105133
STARLINK-31235          
1 59038U 24038R   26004.77285596  .00002410  00000+0  97080-4 0  9997
2 59038  43.0029  24.4757 0001314 268.4534  91.6167 15.27572773105029
STARLINK-31220          
1 59039U 24038S   26005.03649309 -.00001139  00000+0 -31880-4 0  9999
2 59039  43.0040  26.4598 0000588 268.4148  91.6636 15.27566321105024
STARLINK-31225          
1 59040U 24038T   26005.34719310  .00001379  00000+0  59637-4 0  9999
2 59040  43.0024  21.0067 0000577 296.4604  63.6188 15.27574417105000
STARLINK-31240          
1 59041U 24038U   26005.32035627  .00000389  00000+0  23653-4 0  9999
2 59041  43.0031  21.7082 0001641 277.1867  82.8799 15.27582605105103
STARLINK-31202          
1 59042U 24038V   26005.38945556  .00000807  00000+0  38838-4 0  9993
2 59042  42.9986  20.5136 0000590 270.1218  89.9566 15.27577619105180
STARLINK-31234          
1 59043U 24038W   26005.37932424  .00001415  00000+0  60931-4 0  9998
2 59043  43.0003  21.2868 0000953 261.6481  98.4263 15.27574541105004
STARLINK-31153          
1 59044U 24038X   26005.03053183  .00003023  00000+0  11931-3 0  9990
2 59044  43.0052  22.9691 0001131 268.3472  91.7250 15.27582869104951
